OBJECT_NAME,OBJECT_ID,EPOCH,MEAN_MOTION,ECCENTRICITY,INCLINATION,RA_OF_ASC_NODE,ARG_OF_PERICENTER,MEAN_ANOMALY,EPHEMERIS_TYPE,CLASSIFICATION_TYPE,NORAD_CAT_ID,ELEMENT_SET_NO,REV_AT_EPOCH,BSTAR,MEAN_MOTION_DOT,MEAN_MOTION_DDOT
SIRION PATHFINDER-2,2018-099B,2026-06-30T01:33:03.796128,15.14659229,.00071909,97.4246,229.8162,249.9523,110.0936,0,U,43759,999,41457,.25812186E-3,.4711E-4,0
CORVUS BC4,2018-099K,2026-06-30T08:28:46.437600,15.12595052,.00069517,97.4056,223.9482,324.3515,35.7251,0,U,43767,999,41439,.21773691E-3,.3739E-4,0
M2 PATHFINDER,2020-037E,2026-06-30T11:31:01.686432,15.04732911,.00127307,97.8140,12.8603,107.3668,252.8951,0,U,45727,999,32749,.22134261E-3,.3059E-4,0
NETSAT-4,2020-068U,2026-06-30T11:23:41.329824,15.44297823,.00032864,97.8596,190.7866,263.1937,96.8936,0,U,46504,999,31782,.35583116E-3,.16301E-3,0
NETSAT-3,2020-068V,2026-06-30T11:47:17.973600,15.43130864,.00028972,97.8645,189.0043,292.7411,67.3529,0,U,46505,999,31773,.40891167E-3,.18026E-3,0
NETSAT-1,2020-068W,2026-06-30T05:45:47.969856,15.34932311,.00033486,97.8739,182.9092,346.8099,13.3055,0,U,46506,999,31730,.3185871E-3,.1071E-3,0
NETSAT-2,2020-068X,2026-06-30T11:54:12.095712,15.46562129,.00015211,97.8606,190.7536,324.3175,35.7971,0,U,46507,999,31779,.4671994E-3,.23173E-3,0
GREENCUBE (IO-117),2022-080E,2026-06-28T16:50:00.384576,6.42583249,.00089876,70.1440,294.2410,287.1341,72.8335,0,U,53109,999,9280,0,-.3E-7,0
SITRO-AIS 5 (KATYS),2023-091L,2026-06-30T13:06:35.508384,15.29756280,.00121197,97.5056,245.5745,61.7271,298.5191,0,U,57176,999,16638,.40881743E-3,.11737E-3,0
SITRO-AIS 6 (CHIRKIN),2023-091AC,2026-06-30T11:46:31.652832,15.26183412,.00125874,97.5065,244.5664,65.0233,295.2311,0,U,57192,999,16631,.37384818E-3,.9616E-4,0
SITRO-AIS 8 (ANOKHIN),2023-091AD,2026-06-30T12:57:10.163808,15.32490014,.00109969,97.5054,247.2114,57.8842,302.3466,0,U,57193,999,16649,.45455077E-3,.14217E-3,0
SITRO-AIS 7 (FARTUSHNIY),2023-091AE,2026-06-30T13:29:26.593440,15.25867137,.00124969,97.5061,244.4562,65.9550,294.2994,0,U,57194,999,16631,.36763798E-3,.9365E-4,0
SITRO-AIS 10 (BURDAEV),2023-091AK,2026-06-30T12:20:54.683520,15.39101968,.00063531,97.5080,252.3789,37.9350,322.2341,0,U,57199,999,16681,.49113462E-3,.18979E-3,0
SITRO-AIS 9 (SHCHUKIN),2023-091AM,2026-06-30T13:05:06.837792,15.38604751,.00066012,97.5078,252.1297,37.8719,322.2989,0,U,57201,999,16680,.51782702E-3,.19695E-3,0
SITRO-AIS 12 (SMIRENNIY),2023-091AQ,2026-06-30T12:47:56.845248,15.38896523,.0006123,97.5091,252.5931,32.2716,327.8903,0,U,57204,999,16682,.5029439E-3,.19307E-3,0
SITRO-AIS 11 (SHEFFER),2023-091AU,2026-06-30T13:01:54.725664,15.39330081,.00059942,97.5090,252.8580,31.9764,328.1844,0,U,57208,999,16684,.50947929E-3,.19839E-3,0
SITRO-AIS 25,2024-039R,2026-06-30T13:47:37.066848,14.93574164,.01424061,95.3902,244.2922,281.3459,77.1796,0,U,59066,999,12672,.2133837E-3,.271E-4,0
SITRO-AIS 26,2024-039S,2026-06-30T13:52:14.168928,14.93368264,.01427273,95.3903,244.1893,281.9405,76.5849,0,U,59067,999,12671,.20918591E-3,.2643E-4,0
SITRO-AIS 27,2024-039T,2026-06-30T13:03:58.051296,14.93792207,.01417661,95.3910,244.4446,280.6499,77.8789,0,U,59068,999,12673,.16797654E-3,.2134E-4,0
SITRO-AIS 28,2024-039U,2026-06-30T14:07:31.242720,14.93824684,.01416021,95.3908,244.5226,280.3103,78.2185,0,U,59071,999,12674,.22324832E-3,.2851E-4,0
GRBBETA,2024-128C,2026-06-30T10:14:53.757312,15.06717012,.0038958,61.9879,169.8110,137.4915,222.9206,0,U,60237,999,10826,.22612792E-3,.3214E-4,0
OOV-CUBE (TUBSAT-30),2024-128F,2026-06-30T13:30:16.621632,15.02821133,.0042979,61.9924,178.9308,136.7327,223.7153,0,U,60240,999,10812,.14863728E-3,.1824E-4,0
ROBUSTA-3A (MEDITERRANEE),2024-128J,2026-06-30T11:54:19.638432,15.11802352,.00398326,61.9847,161.1742,130.7455,229.7110,0,U,60243,999,10843,.33314363E-3,.5601E-4,0
LASARSAT,2024-247Q,2026-06-30T11:22:48.461664,15.47133217,.00067092,44.9721,187.5081,55.5360,304.6163,0,U,62391,999,8537,.62049819E-3,.31981E-3,0
CROCUBE,2024-247T,2026-06-30T10:55:41.519424,15.49133067,.00065888,44.9690,184.7243,61.2381,298.9172,0,U,62394,999,8540,.62612125E-3,.34641E-3,0
FORESAIL-1 PRIME,2025-276DS,2026-06-30T10:29:33.076032,15.18816213,.00037806,97.4202,254.4659,75.9591,284.2063,0,U,66778,999,3241,.2115921E-3,.4337E-4,0
KNACKSAT-2,1998-067XZ,2026-06-30T08:24:10.954656,15.61112165,.00084933,51.6260,228.2118,273.6004,86.4018,0,U,67683,999,2233,.45592226E-3,.38944E-3,0
